{"type": "FeatureCollection", "features": [ {"type": "Feature", "properties": {"norad_id": 66535, "name": "STARLINK-35514", "group": "last-30-days", "lat": 30.23127075439093, "lon": 170.40039834545442, "alt_km": 412.5466652454479, "timestamp": "2025-12-16T23:36:34.922422+00:00", "meta": {"OBJECT_NAME": "STARLINK-35514", "OBJECT_ID": "2025-265V", "EPOCH": "2025-12-15T13:01:57.099072", "MEAN_MOTION": 15.50545822, "ECCENTRICITY": 0.0005009, "INCLINATION": 43.0013, "RA_OF_ASC_NODE": 37.5374, "ARG_OF_PERICENTER": 275.3717, "MEAN_ANOMALY": 84.6572, "EPHEMERIS_TYPE": 0, "CLASSIFICATION_TYPE": "U", "NORAD_CAT_ID": 66535, "ELEMENT_SET_NO": 999, "REV_AT_EPOCH": 419, "BSTAR": 0.0015333409, "MEAN_MOTION_DOT": 0.00090585, "MEAN_MOTION_DDOT": 0}, "tle": {"line1": "1 66535U 25265V   25349.54302198  .00090585  00000+0  15333-2 0  9993", "line2": "2 66535  43.0013  37.5374 0005009 275.3717  84.6572 15.50545822  4196"}}, "geometry": {"type": "Point", "coordinates": [170.40039834545442, 30.23127075439093]}}, {"type": "Feature", "properties": {"norad_id": 66536, "name": "STARLINK-35640", "group": "last-30-days", "lat": 29.235282186544637, "lon": 172.19051116968794, "alt_km": 410.2695017962742, "timestamp": "2025-12-16T23:36:34.922433+00:00", "meta": {"OBJECT_NAME": "STARLINK-35640", "OBJECT_ID": "2025-265W", "EPOCH": "2025-12-16T02:56:16.278432", "MEAN_MOTION": 15.5063029, "ECCENTRICITY": 7.128e-05, "INCLINATION": 42.9995, "RA_OF_ASC_NODE": 34.146, "ARG_OF_PERICENTER": 274, "MEAN_ANOMALY": 86.0778, "EPHEMERIS_TYPE": 0, "CLASSIFICATION_TYPE": "U", "NORAD_CAT_ID": 66536, "ELEMENT_SET_NO": 999, "REV_AT_EPOCH": 428, "BSTAR": 0.0012040007, "MEAN_MOTION_DOT": 0.00071064, "MEAN_MOTION_DDOT": 0}, "tle": {"line1": "1 66536U 25265W   25350.12241063  .00071064  00000+0  12040-2 0  9996", "line2": "2 66536  42.9995  34.1460 0000712 274.0000  86.0778 15.50630290  4288"}}, "geometry": {"type": "Point", "coordinates": [172.19051116968794, 29.235282186544637]}}, {"type": "Feature", "properties": {"norad_id": 66537, "name": "STARLINK-35582", "group": "last-30-days", "lat": 28.220091289389163, "lon": 173.93680402925756, "alt_km": 410.7921356039751, "timestamp": "2025-12-16T23:36:34.922443+00:00", "meta": {"OBJECT_NAME": "STARLINK-35582", "OBJECT_ID": "2025-265X", "EPOCH": "2025-12-16T04:28:31.948032", "MEAN_MOTION": 15.50629067, "ECCENTRICITY": 0.00015683, "INCLINATION": 43.0004, "RA_OF_ASC_NODE": 33.7637, "ARG_OF_PERICENTER": 260.1282, "MEAN_ANOMALY": 99.9401, "EPHEMERIS_TYPE": 0, "CLASSIFICATION_TYPE": "U", "NORAD_CAT_ID": 66537, "ELEMENT_SET_NO": 999, "REV_AT_EPOCH": 429, "BSTAR": 0.0010291494, "MEAN_MOTION_DOT": 0.00060611, "MEAN_MOTION_DDOT": 0}, "tle": {"line1": "1 66537U 25265X   25350.18648088  .00060611  00000+0  10291-2 0  9993", "line2": "2 66537  43.0004  33.7637 0001568 260.1282  99.9401 15.50629067  4298"}}, "geometry": {"type": "Point", "coordinates": [173.93680402925756, 28.220091289389163]}}, {"type": "Feature", "properties": {"norad_id": 66538, "name": "STARLINK-35577", "group": "last-30-days", "lat": 27.126107567923377, "lon": 175.74339486506943, "alt_km": 410.68874663935003, "timestamp": "2025-12-16T23:36:34.922454+00:00", "meta": {"OBJECT_NAME": "STARLINK-35577", "OBJECT_ID": "2025-265Y", "EPOCH": "2025-12-16T02:55:17.137632", "MEAN_MOTION": 15.50622124, "ECCENTRICITY": 7.994e-05, "INCLINATION": 43, "RA_OF_ASC_NODE": 34.1386, "ARG_OF_PERICENTER": 272.399, "MEAN_ANOMALY": 87.6778, "EPHEMERIS_TYPE": 0, "CLASSIFICATION_TYPE": "U", "NORAD_CAT_ID": 66538, "ELEMENT_SET_NO": 999, "REV_AT_EPOCH": 428, "BSTAR": 0.0010875048, "MEAN_MOTION_DOT": 0.00064079, "MEAN_MOTION_DDOT": 0}, "tle": {"line1": "1 66538U 25265Y   25350.12172613  .00064079  00000+0  10875-2 0  9994", "line2": "2 66538  43.0000  34.1386 0000799 272.3990  87.6778 15.50622124  4284"}}, "geometry": {"type": "Point", "coordinates": [175.74339486506943, 27.126107567923377]}}, {"type": "Feature", "properties": {"norad_id": 66539, "name": "STARLINK-35697", "group": "last-30-days", "lat": 26.054972254187064, "lon": 177.44305943358884, "alt_km": 411.2908323335505, "timestamp": "2025-12-16T23:36:34.922465+00:00", "meta": {"OBJECT_NAME": "STARLINK-35697", "OBJECT_ID": "2025-265Z", "EPOCH": "2025-12-16T04:27:32.683680", "MEAN_MOTION": 15.50619242, "ECCENTRICITY": 0.00017071, "INCLINATION": 43.0005, "RA_OF_ASC_NODE": 33.7581, "ARG_OF_PERICENTER": 267.576, "MEAN_ANOMALY": 92.4905, "EPHEMERIS_TYPE": 0, "CLASSIFICATION_TYPE": "U", "NORAD_CAT_ID": 66539, "ELEMENT_SET_NO": 999, "REV_AT_EPOCH": 429, "BSTAR": 0.0010094892, "MEAN_MOTION_DOT": 0.00059417, "MEAN_MOTION_DDOT": 0}, "tle": {"line1": "1 66539U 25265Z   25350.18579495  .00059417  00000+0  10095-2 0  9994", "line2": "2 66539  43.0005  33.7581 0001707 267.5760  92.4905 15.50619242  4297"}}, "geometry": {"type": "Point", "coordinates": [177.44305943358884, 26.054972254187064]}}, {"type": "Feature", "properties": {"norad_id": 66540, "name": "STARLINK-35818", "group": "last-30-days", "lat": 24.925892962331446, "lon": 179.16598729953103, "alt_km": 410.80748607597707, "timestamp": "2025-12-16T23:36:34.922476+00:00", "meta": {"OBJECT_NAME": "STARLINK-35818", "OBJECT_ID": "2025-265AA", "EPOCH": "2025-12-16T04:27:02.949984", "MEAN_MOTION": 15.50621645, "ECCENTRICITY": 0.0001249, "INCLINATION": 42.9996, "RA_OF_ASC_NODE": 33.7531, "ARG_OF_PERICENTER": 232.8718, "MEAN_ANOMALY": 127.2028, "EPHEMERIS_TYPE": 0, "CLASSIFICATION_TYPE": "U", "NORAD_CAT_ID": 66540, "ELEMENT_SET_NO": 999, "REV_AT_EPOCH": 429, "BSTAR": 0.000907791, "MEAN_MOTION_DOT": 0.00053359, "MEAN_MOTION_DDOT": 0}, "tle": {"line1": "1 66540U 25265AA  25350.18545081  .00053359  00000+0  90779-3 0  9997", "line2": "2 66540  42.9996  33.7531 0001249 232.8718 127.2028 15.50621645  4293"}}, "geometry": {"type": "Point", "coordinates": [179.16598729953103, 24.925892962331446]}}, {"type": "Feature", "properties": {"norad_id": 66541, "name": "STARLINK-35796", "group": "last-30-days", "lat": 19.625085771901514, "lon": 51.85615989096929, "alt_km": 441.23758420194645, "timestamp": "2025-12-16T23:36:34.922487+00:00", "meta": {"OBJECT_NAME": "STARLINK-35796", "OBJECT_ID": "2025-265AB", "EPOCH": "2025-12-16T06:00:02.999808", "MEAN_MOTION": 15.40687975, "ECCENTRICITY": 0.00010567, "INCLINATION": 43.0008, "RA_OF_ASC_NODE": 33.5876, "ARG_OF_PERICENTER": 270.8143, "MEAN_ANOMALY": 4.446, "EPHEMERIS_TYPE": 0, "CLASSIFICATION_TYPE": "U", "NORAD_CAT_ID": 66541, "ELEMENT_SET_NO": 999, "REV_AT_EPOCH": 555, "BSTAR": 0.00017430736, "MEAN_MOTION_DOT": 6.982e-05, "MEAN_MOTION_DDOT": 0}, "tle": {"line1": "1 66541U 25265AB  25350.25003472  .00006982  00000+0  17431-3 0  9993", "line2": "2 66541  43.0008  33.5876 0001056 270.8143   4.4460 15.40687975  5553"}}, "geometry": {"type": "Point", "coordinates": [51.85615989096929, 19.625085771901514]}}, {"type": "Feature", "properties": {"norad_id": 66542, "name": "STARLINK-35833", "group": "last-30-days", "lat": 42.06724281606543, "lon": 104.82366541911772, "alt_km": 437.95952944748933, "timestamp": "2025-12-16T23:36:34.922497+00:00", "meta": {"OBJECT_NAME": "STARLINK-35833", "OBJECT_ID": "2025-265AC", "EPOCH": "2025-12-16T06:00:02.999808", "MEAN_MOTION": 15.40670341, "ECCENTRICITY": 0.00010493, "INCLINATION": 43.0005, "RA_OF_ASC_NODE": 33.468, "ARG_OF_PERICENTER": 286.1263, "MEAN_ANOMALY": 38.9345, "EPHEMERIS_TYPE": 0, "CLASSIFICATION_TYPE": "U", "NORAD_CAT_ID": 66542, "ELEMENT_SET_NO": 999, "REV_AT_EPOCH": 555, "BSTAR": 0.00052945643, "MEAN_MOTION_DOT": 0.00021855, "MEAN_MOTION_DDOT": 0}, "tle": {"line1": "1 66542U 25265AC  25350.25003472  .00021855  00000+0  52946-3 0  9990", "line2": "2 66542  43.0005  33.4680 0001049 286.1263  38.9345 15.40670341  5551"}}, "geometry": {"type": "Point", "coordinates": [104.82366541911772, 42.06724281606543]}}, {"type": "Feature", "properties": {"norad_id": 66543, "name": "STARLINK-35315", "group": "last-30-days", "lat": 21.984244253794273, "lon": -176.59878950579287, "alt_km": 412.364681658245, "timestamp": "2025-12-16T23:36:34.922508+00:00", "meta": {"OBJECT_NAME": "STARLINK-35315", "OBJECT_ID": "2025-265AD", "EPOCH": "2025-12-15T20:41:50.592768", "MEAN_MOTION": 15.50477986, "ECCENTRICITY": 0.00021484, "INCLINATION": 43.002, "RA_OF_ASC_NODE": 35.6314, "ARG_OF_PERICENTER": 30.7647, "MEAN_ANOMALY": 329.3339, "EPHEMERIS_TYPE": 0, "CLASSIFICATION_TYPE": "U", "NORAD_CAT_ID": 66543, "ELEMENT_SET_NO": 999, "REV_AT_EPOCH": 424, "BSTAR": -0.00014518767, "MEAN_MOTION_DOT": -8.82e-05, "MEAN_MOTION_DDOT": 0}, "tle": {"line1": "1 66543U 25265AD  25349.86239112 -.00008820  00000+0 -14519-3 0  9991", "line2": "2 66543  43.0020  35.6314 0002148  30.7647 329.3339 15.50477986  4243"}}, "geometry": {"type": "Point", "coordinates": [-176.59878950579287, 21.984244253794273]}}, {"type": "Feature", "properties": {"norad_id": 66544, "name": "STARLINK-35728", "group": "last-30-days", "lat": 20.25816333053745, "lon": -174.2676531605672, "alt_km": 411.72250725150934, "timestamp": "2025-12-16T23:36:34.922518+00:00", "meta": {"OBJECT_NAME": "STARLINK-35728", "OBJECT_ID": "2025-265AE", "EPOCH": "2025-12-16T02:52:19.011936", "MEAN_MOTION": 15.50615488, "ECCENTRICITY": 0.00010134, "INCLINATION": 43.0001, "RA_OF_ASC_NODE": 34.1212, "ARG_OF_PERICENTER": 252.2214, "MEAN_ANOMALY": 107.8535, "EPHEMERIS_TYPE": 0, "CLASSIFICATION_TYPE": "U", "NORAD_CAT_ID": 66544, "ELEMENT_SET_NO": 999, "REV_AT_EPOCH": 428, "BSTAR": 0.00074383437, "MEAN_MOTION_DOT": 0.00043595, "MEAN_MOTION_DDOT": 0}, "tle": {"line1": "1 66544U 25265AE  25350.11966449  .00043595  00000+0  74383-3 0  9993", "line2": "2 66544  43.0001  34.1212 0001013 252.2214 107.8535 15.50615488  4287"}}, "geometry": {"type": "Point", "coordinates": [-174.2676531605672, 20.25816333053745]}}]}